STARLINK-35945          
1 66925U 25286A   26002.73470032  .00144875  00000+0  25628-2 0  9990
2 66925  53.1598 307.2962 0001099  84.4544 275.6591 15.49331802  5284
STARLINK-35942          
1 66926U 25286B   26002.75002314  .00125453  00000+0  31034-2 0  9996
2 66926  53.1598 307.4373 0000931  95.9569 242.0129 15.39537523  5362
STARLINK-35943          
1 66927U 25286C   26002.54689137  .00156695  00000+0  27638-2 0  9995
2 66927  53.1600 308.2587 0001693  90.4907 269.6296 15.49365765  5251
STARLINK-35944          
1 66928U 25286D   26002.67661759 -.00019549  00000+0 -34608-3 0  9994
2 66928  53.1589 307.6458 0000954 143.0789 217.0286 15.49165216  5277
STARLINK-36169          
1 66929U 25286E   26002.55039931 -.00266334  00000+0 -62416-2 0  9996
2 66929  53.1590 308.2811 0001261 283.0457  77.0408 15.42556845  5252
STARLINK-36206          
1 66930U 25286F   26002.54620317  .00121627  00000+0  21575-2 0  9995
2 66930  53.1603 308.2538 0001655  85.8396 274.2803 15.49354768  5259
STARLINK-36130          
1 66931U 25286G   26002.75002314  .00148726  00000+0  36686-2 0  9998
2 66931  53.1604 307.4877 0001081  89.4112 222.8297 15.39515440  5360
STARLINK-36177          
1 66932U 25286H   26002.74131249 -.00381761  00000+0 -85873-2 0  9990
2 66932  53.1601 307.3363 0002041   5.3855 354.7174 15.44214056  5280
STARLINK-36157          
1 66933U 25286J   26002.54517657  .00137621  00000+0  24360-2 0  9996
2 66933  53.1605 308.2466 0001929  76.2181 283.9042 15.49345317  5256
STARLINK-36153          
1 66934U 25286K   26002.75002314  .00163107  00000+0  40101-2 0  9998
2 66934  53.1593 307.3844 0001911 122.1984 241.4561 15.39551033  5366
STARLINK-36127          
1 66935U 25286L   26002.75002314  .00153207  00000+0  37770-2 0  9997
2 66935  53.1605 307.5376 0001139  77.5291 208.9656 15.39511949  5364
STARLINK-36160          
1 66936U 25286M   26002.80218260  .00045640  00000+0  82503-3 0  9999
2 66936  53.1579 307.0072 0001695 104.3756 255.7441 15.49268245  5287
