CCSDS_OMM_VERS = 2.0
CREATION_DATE  = 
ORIGINATOR     = 

OBJECT_NAME    = STARLINK-35945
OBJECT_ID      = 2025-286A
CENTER_NAME    = EARTH
REF_FRAME      = TEME
TIME_SYSTEM    = UTC
MEAN_ELEMENT_THEORY = SGP/SGP4

EPOCH          = 2026-01-02T17:37:58.107648
MEAN_MOTION    = 15.49331802
ECCENTRICITY   = .0001099
INCLINATION    = 53.1598
RA_OF_ASC_NODE = 307.2962
ARG_OF_PERICENTER = 84.4544
MEAN_ANOMALY   = 275.6591

EPHEMERIS_TYPE = 0
CLASSIFICATION_TYPE = U
NORAD_CAT_ID   = 66925
ELEMENT_SET_NO = 999
REV_AT_EPOCH   = 528
BSTAR          = .25628E-2
MEAN_MOTION_DOT = .144875E-2
MEAN_MOTION_DDOT = 0

CCSDS_OMM_VERS = 2.0
CREATION_DATE  = 
ORIGINATOR     = 

OBJECT_NAME    = STARLINK-35942
OBJECT_ID      = 2025-286B
CENTER_NAME    = EARTH
REF_FRAME      = TEME
TIME_SYSTEM    = UTC
MEAN_ELEMENT_THEORY = SGP/SGP4

EPOCH          = 2026-01-02T18:00:01.999296
MEAN_MOTION    = 15.39537523
ECCENTRICITY   = .0000931
INCLINATION    = 53.1598
RA_OF_ASC_NODE = 307.4373
ARG_OF_PERICENTER = 95.9569
MEAN_ANOMALY   = 242.0129

EPHEMERIS_TYPE = 0
CLASSIFICATION_TYPE = U
NORAD_CAT_ID   = 66926
ELEMENT_SET_NO = 999
REV_AT_EPOCH   = 536
BSTAR          = .31034E-2
MEAN_MOTION_DOT = .125453E-2
MEAN_MOTION_DDOT = 0

CCSDS_OMM_VERS = 2.0
CREATION_DATE  = 
ORIGINATOR     = 

OBJECT_NAME    = STARLINK-35943
OBJECT_ID      = 2025-286C
CENTER_NAME    = EARTH
REF_FRAME      = TEME
TIME_SYSTEM    = UTC
MEAN_ELEMENT_THEORY = SGP/SGP4

EPOCH          = 2026-01-02T13:07:31.414368
MEAN_MOTION    = 15.49365765
ECCENTRICITY   = .0001693
INCLINATION    = 53.1600
RA_OF_ASC_NODE = 308.2587
ARG_OF_PERICENTER = 90.4907
MEAN_ANOMALY   = 269.6296

EPHEMERIS_TYPE = 0
CLASSIFICATION_TYPE = U
NORAD_CAT_ID   = 66927
ELEMENT_SET_NO = 999
REV_AT_EPOCH   = 525
BSTAR          = .27638E-2
MEAN_MOTION_DOT = .156695E-2
MEAN_MOTION_DDOT = 0

CCSDS_OMM_VERS = 2.0
CREATION_DATE  = 
ORIGINATOR     = 

OBJECT_NAME    = STARLINK-35944
OBJECT_ID      = 2025-286D
CENTER_NAME    = EARTH
REF_FRAME      = TEME
TIME_SYSTEM    = UTC
MEAN_ELEMENT_THEORY = SGP/SGP4

EPOCH          = 2026-01-02T16:14:19.759776
MEAN_MOTION    = 15.49165216
ECCENTRICITY   = .0000954
INCLINATION    = 53.1589
RA_OF_ASC_NODE = 307.6458
ARG_OF_PERICENTER = 143.0789
MEAN_ANOMALY   = 217.0286

EPHEMERIS_TYPE = 0
CLASSIFICATION_TYPE = U
NORAD_CAT_ID   = 66928
ELEMENT_SET_NO = 999
REV_AT_EPOCH   = 527
BSTAR          = -.34608E-3
MEAN_MOTION_DOT = -.19549E-3
MEAN_MOTION_DDOT = 0

CCSDS_OMM_VERS = 2.0
CREATION_DATE  = 
ORIGINATOR     = 

OBJECT_NAME    = STARLINK-36169
OBJECT_ID      = 2025-286E
CENTER_NAME    = EARTH
REF_FRAME      = TEME
TIME_SYSTEM    = UTC
MEAN_ELEMENT_THEORY = SGP/SGP4

EPOCH          = 2026-01-02T13:12:34.500384
MEAN_MOTION    = 15.42556845
ECCENTRICITY   = .0001261
INCLINATION    = 53.1590
RA_OF_ASC_NODE = 308.2811
ARG_OF_PERICENTER = 283.0457
MEAN_ANOMALY   = 77.0408

EPHEMERIS_TYPE = 0
CLASSIFICATION_TYPE = U
NORAD_CAT_ID   = 66929
ELEMENT_SET_NO = 999
REV_AT_EPOCH   = 525
BSTAR          = -.62416E-2
MEAN_MOTION_DOT = -.266334E-2
MEAN_MOTION_DDOT = 0

CCSDS_OMM_VERS = 2.0
CREATION_DATE  = 
ORIGINATOR     = 

OBJECT_NAME    = STARLINK-36206
OBJECT_ID      = 2025-286F
CENTER_NAME    = EARTH
REF_FRAME      = TEME
TIME_SYSTEM    = UTC
MEAN_ELEMENT_THEORY = SGP/SGP4

EPOCH          = 2026-01-02T13:06:31.953888
MEAN_MOTION    = 15.49354768
ECCENTRICITY   = .0001655
INCLINATION    = 53.1603
RA_OF_ASC_NODE = 308.2538
ARG_OF_PERICENTER = 85.8396
MEAN_ANOMALY   = 274.2803

EPHEMERIS_TYPE = 0
CLASSIFICATION_TYPE = U
NORAD_CAT_ID   = 66930
ELEMENT_SET_NO = 999
REV_AT_EPOCH   = 525
BSTAR          = .21575E-2
MEAN_MOTION_DOT = .121627E-2
MEAN_MOTION_DDOT = 0

CCSDS_OMM_VERS = 2.0
CREATION_DATE  = 
ORIGINATOR     = 

OBJECT_NAME    = STARLINK-36130
OBJECT_ID      = 2025-286G
CENTER_NAME    = EARTH
REF_FRAME      = TEME
TIME_SYSTEM    = UTC
MEAN_ELEMENT_THEORY = SGP/SGP4

EPOCH          = 2026-01-02T18:00:01.999296
MEAN_MOTION    = 15.39515440
ECCENTRICITY   = .0001081
INCLINATION    = 53.1604
RA_OF_ASC_NODE = 307.4877
ARG_OF_PERICENTER = 89.4112
MEAN_ANOMALY   = 222.8297

EPHEMERIS_TYPE = 0
CLASSIFICATION_TYPE = U
NORAD_CAT_ID   = 66931
ELEMENT_SET_NO = 999
REV_AT_EPOCH   = 536
BSTAR          = .36686E-2
MEAN_MOTION_DOT = .148726E-2
MEAN_MOTION_DDOT = 0

CCSDS_OMM_VERS = 2.0
CREATION_DATE  = 
ORIGINATOR     = 

OBJECT_NAME    = STARLINK-36177
OBJECT_ID      = 2025-286H
CENTER_NAME    = EARTH
REF_FRAME      = TEME
TIME_SYSTEM    = UTC
MEAN_ELEMENT_THEORY = SGP/SGP4

EPOCH          = 2026-01-02T17:47:29.399136
MEAN_MOTION    = 15.44214056
ECCENTRICITY   = .0002041
INCLINATION    = 53.1601
RA_OF_ASC_NODE = 307.3363
ARG_OF_PERICENTER = 5.3855
MEAN_ANOMALY   = 354.7174

EPHEMERIS_TYPE = 0
CLASSIFICATION_TYPE = U
NORAD_CAT_ID   = 66932
ELEMENT_SET_NO = 999
REV_AT_EPOCH   = 528
BSTAR          = -.85873E-2
MEAN_MOTION_DOT = -.381761E-2
MEAN_MOTION_DDOT = 0

CCSDS_OMM_VERS = 2.0
CREATION_DATE  = 
ORIGINATOR     = 

OBJECT_NAME    = STARLINK-36157
OBJECT_ID      = 2025-286J
CENTER_NAME    = EARTH
REF_FRAME      = TEME
TIME_SYSTEM    = UTC
MEAN_ELEMENT_THEORY = SGP/SGP4

EPOCH          = 2026-01-02T13:05:03.255648
MEAN_MOTION    = 15.49345317
ECCENTRICITY   = .0001929
INCLINATION    = 53.1605
RA_OF_ASC_NODE = 308.2466
ARG_OF_PERICENTER = 76.2181
MEAN_ANOMALY   = 283.9042

EPHEMERIS_TYPE = 0
CLASSIFICATION_TYPE = U
NORAD_CAT_ID   = 66933
ELEMENT_SET_NO = 999
REV_AT_EPOCH   = 525
BSTAR          = .2436E-2
MEAN_MOTION_DOT = .137621E-2
MEAN_MOTION_DDOT = 0

CCSDS_OMM_VERS = 2.0
CREATION_DATE  = 
ORIGINATOR     = 

OBJECT_NAME    = STARLINK-36153
OBJECT_ID      = 2025-286K
CENTER_NAME    = EARTH
REF_FRAME      = TEME
TIME_SYSTEM    = UTC
MEAN_ELEMENT_THEORY = SGP/SGP4

EPOCH          = 2026-01-02T18:00:01.999296
MEAN_MOTION    = 15.39551033
ECCENTRICITY   = .0001911
INCLINATION    = 53.1593
RA_OF_ASC_NODE = 307.3844
ARG_OF_PERICENTER = 122.1984
MEAN_ANOMALY   = 241.4561

EPHEMERIS_TYPE = 0
CLASSIFICATION_TYPE = U
NORAD_CAT_ID   = 66934
ELEMENT_SET_NO = 999
REV_AT_EPOCH   = 536
BSTAR          = .40101E-2
MEAN_MOTION_DOT = .163107E-2
MEAN_MOTION_DDOT = 0

CCSDS_OMM_VERS = 2.0
CREATION_DATE  = 
ORIGINATOR     = 

OBJECT_NAME    = STARLINK-36127
OBJECT_ID      = 2025-286L
CENTER_NAME    = EARTH
REF_FRAME      = TEME
TIME_SYSTEM    = UTC
MEAN_ELEMENT_THEORY = SGP/SGP4

EPOCH          = 2026-01-02T18:00:01.999296
MEAN_MOTION    = 15.39511949
ECCENTRICITY   = .0001139
INCLINATION    = 53.1605
RA_OF_ASC_NODE = 307.5376
ARG_OF_PERICENTER = 77.5291
MEAN_ANOMALY   = 208.9656

EPHEMERIS_TYPE = 0
CLASSIFICATION_TYPE = U
NORAD_CAT_ID   = 66935
ELEMENT_SET_NO = 999
REV_AT_EPOCH   = 536
BSTAR          = .3777E-2
MEAN_MOTION_DOT = .153207E-2
MEAN_MOTION_DDOT = 0

CCSDS_OMM_VERS = 2.0
CREATION_DATE  = 
ORIGINATOR     = 

OBJECT_NAME    = STARLINK-36160
OBJECT_ID      = 2025-286M
CENTER_NAME    = EARTH
REF_FRAME      = TEME
TIME_SYSTEM    = UTC
MEAN_ELEMENT_THEORY = SGP/SGP4

EPOCH          = 2026-01-02T19:15:08.576640
MEAN_MOTION    = 15.49268245
ECCENTRICITY   = .0001695
INCLINATION    = 53.1579
RA_OF_ASC_NODE = 307.0072
ARG_OF_PERICENTER = 104.3756
MEAN_ANOMALY   = 255.7441

EPHEMERIS_TYPE = 0
CLASSIFICATION_TYPE = U
NORAD_CAT_ID   = 66936
ELEMENT_SET_NO = 999
REV_AT_EPOCH   = 528
BSTAR          = .82503E-3
MEAN_MOTION_DOT = .4564E-3
MEAN_MOTION_DDOT = 0

